{"type":"FeatureCollection","features":[{"type":"Feature","properties":{"OBJECTID":"2","BRGY":"ABLAYAN","Shape_Leng":"8.71983999142e+003","Shape_Area":"4.77571853470e+006","area_ha":"4.77571857829e+002"},"geometry":{"type":"Polygon","coordinates":[[[123.4763411249212,9.831623252258384],[123.46869153781988,9.83068667967576],[123.46346128200301,9.83254394731526],[123.44933435131533,9.837559928928579],[123.44933266739262,9.837560526929114],[123.44932707618466,9.837562511495966],[123.45217995808217,9.848057603237793],[123.45336248918386,9.852407640196628],[123.45955111628248,9.85193625685164],[123.46532880755937,9.851496070774052],[123.47074884512921,9.847505671561239],[123.4763411249212,9.831623252258384]]]}},{"type":"Feature","properties":{"OBJECTID":"3","BRGY":"BABAYONGAN","Shape_Leng":"9.30155743770e+003","Shape_Area":"5.18775170414e+006","area_ha":"5.18775178363e+002"},"geometry":{"type":"Polygon","coordinates":[[[123.51450045475417,9.83781630173454],[123.49185262501207,9.825857171161221],[123.48720141964603,9.827719229729436],[123.4871932280661,9.827722508739093],[123.48621965890428,9.83539950243395],[123.48621863125554,9.835407606508953],[123.48621829681822,9.835410243362727],[123.48868719177064,9.851048758248862],[123.48871019401564,9.851048626164271],[123.497097588692,9.851000329154937],[123.50217823188005,9.846630620514828],[123.50218265239299,9.846627461450243],[123.51450735223405,9.837819943117367],[123.51450045475417,9.83781630173454]]]}},{"type":"Feature","properties":{"OBJECTID":"4","BRGY":"BALUD","Shape_Leng":"5.33695855999e+003","Shape_Area":"1.33709977963e+006","area_ha":"1.33709977963e+002"},"geometry":{"type":"Polygon","coordinates":[[[123.52041664662872,9.749479987033114],[123.5196941319369,9.749636231368514],[123.50908665766995,9.75511331589539],[123.52115136397362,9.759641865409387],[123.52862314437012,9.756664353585858],[123.5289142111099,9.753907855320426],[123.52880285263096,9.753805598516392],[123.52833637442325,9.753632537107364],[123.5280152688982,9.75352319529186],[123.52778586290613,9.75342833235423],[123.52751692872309,9.753316394635222],[123.52745442395123,9.753302842047757],[123.52734253412686,9.753245073079494],[123.52723674272121,9.753189204291836],[123.52706434402319,9.75313785582644],[123.5270115647925,9.753108300148948],[123.526959071484,9.753079162631074],[123.5269043965627,9.753042515275125],[123.52682186067794,9.753016864341395],[123.52674987600889,9.7530006236186],[123.52649598338694,9.752889912627777],[123.52641674828851,9.752853960604616],[123.52631954964728,9.752828161792795],[123.52606963615078,9.752713106528788],[123.52589759597329,9.752639209349939],[123.52577304276508,9.752561914900085],[123.52563677870512,9.752489143293499],[123.52557568070843,9.75245976180346],[123.5254984484111,9.75244947687499],[123.52528710493672,9.75232077029348],[123.52492596237963,9.752150560822178],[123.52477930354071,9.752070261581999],[123.52447619586799,9.751906123629167],[123.52422010810186,9.751809557140264],[123.52404358111491,9.751699439923135],[123.52368225188302,9.751508884185933],[123.52332219657185,9.751326267815246],[123.52296215892181,9.751146013452184],[123.52270377667945,9.751047298346755],[123.52260657692456,9.751011923921306],[123.52242475008649,9.750910096325052],[123.52179584472373,9.750477352855041],[123.52176933950787,9.75025750339808],[123.52189600510147,9.750176927959693],[123.52187615402921,9.75007658811061],[123.52176419041994,9.750002617482387],[123.5216452323743,9.749651695259413],[123.52133136467899,9.750204343615101],[123.52105956562656,9.750213617842087],[123.52104490902246,9.75022466904412],[123.52071681733167,9.750571903831009],[123.52061431577995,9.750484093007623],[123.52047853342546,9.75026009449541],[123.52064995387741,9.74993081883606],[123.5208571687992,9.749384809750891],[123.52076444792219,9.749381523022691],[123.52055286532284,9.749361570758483],[123.52041664662872,9.749479987033114]]]}},{"type":"Feature","properties":{"OBJECTID":"5","BRGY":"BANHIGAN","Shape_Leng":"5.78678863166e+003","Shape_Area":"1.43714306826e+006","area_ha":"1.43714304870e+002"},"geometry":{"type":"Polygon","coordinates":[[[123.53451118542672,9.799496659788751],[123.53441838475794,9.79926871665537],[123.5343074436604,9.79930976183322],[123.53427885110861,9.799266949657854],[123.53425014754515,9.799220775285693],[123.5342631856349,9.799167162517953],[123.53428603848934,9.799025024534506],[123.53433968567286,9.798875542823465],[123.53435377325464,9.798791989002037],[123.53441706468,9.798533701448921],[123.53452315559286,9.798532282520394],[123.53456329451484,9.79819476969038],[123.53438996211497,9.79818607890635],[123.53443267182112,9.797997758379475],[123.53442435823342,9.79787852071668],[123.53437307700791,9.797773566519508],[123.53435505585415,9.79767702151764],[123.5343936913004,9.79748248976105],[123.53466089488069,9.79752507042356],[123.53465009547664,9.797390151297414],[123.53464043670341,9.7972699248204],[123.53445852006196,9.797263537418653],[123.53444154305407,9.797138270106766],[123.53444251884666,9.797060252490093],[123.53449098895253,9.796931512596421],[123.53449032215123,9.796807652171479],[123.53448995214825,9.79674563115273],[123.53449498034388,9.796655304211606],[123.53449568122467,9.796582165567964],[123.53449503777271,9.796520147683475],[123.53449473657255,9.79644854304608],[123.53450364417562,9.796379672651291],[123.53459353858716,9.796386393114572],[123.53456825160742,9.796300190555648],[123.5345793595395,9.796176183540208],[123.53455884618832,9.796173501132447],[123.53453813779016,9.796105283176852],[123.53470655599747,9.796111633581186],[123.534738415478,9.795894860437992],[123.53466199542302,9.79587318245501],[123.5346602468816,9.795801688547469],[123.53455890650956,9.795781492927972],[123.53457120839275,9.795534430870381],[123.53461251393264,9.795257900780381],[123.53467491132561,9.795173009212705],[123.53475223679159,9.795200185471613],[123.5347279633599,9.795124923730057],[123.53476222895162,9.794988039893022],[123.53483158539254,9.794801508013117],[123.5346670350947,9.794768863901963],[123.53469092088103,9.79464158234241],[123.53465944936161,9.794635385445106],[123.53526870773646,9.793497762524037],[123.53541880345622,9.793556938916296],[123.53547272604891,9.793404869075866],[123.53559016163317,9.793180414981038],[123.5357976016744,9.792908790799403],[123.5359224803559,9.792704082475927],[123.53592297857496,9.792703265297252],[123.53553215593925,9.79269044741319],[123.51636473743191,9.792155351884663],[123.51651397698409,9.793274274162641],[123.51651413464208,9.793275453787603],[123.51651421311695,9.793275509725156],[123.52873559871503,9.801950806348714],[123.53415131432648,9.801342612190796],[123.5346848710687,9.801274292971497],[123.53448882841408,9.80078165580089],[123.53442644982852,9.80070634994061],[123.53442170841275,9.800479830240683],[123.53457687497301,9.800022798641669],[123.53460951943818,9.799849405071091],[123.53451118542672,9.799496659788751]]]}},{"type":"Feature","properties":{"OBJECTID":"6","BRGY":"BULAK","Shape_Leng":"1.03819344815e+004","Shape_Area":"5.37822061545e+006","area_ha":"5.37822058253e+002"},"geometry":{"type":"Polygon","coordinates":[[[123.5193971341823,9.849122011137439],[123.50220485697216,9.84664050788158],[123.49712421400982,9.851010216909918],[123.48871381687479,9.85105864667905],[123.48147342981699,9.859469156318792],[123.48991902797842,9.870676771681875],[123.48992497293266,9.870684660583606],[123.49568690842328,9.868304346332392],[123.50799030673357,9.858459164911732],[123.50802362281466,9.858431943728368],[123.50802519719724,9.858430657573644],[123.51941455994502,9.84912452627289],[123.5193971341823,9.849122011137439]]]}},{"type":"Feature","properties":{"OBJECTID":"7","BRGY":"CALERIOHAN","Shape_Leng":"1.18520142289e+004","Shape_Area":"6.99737477193e+006","area_ha":"6.99737477298e+002"},"geometry":{"type":"Polygon","coordinates":[[[123.43421884564536,9.788350749580793],[123.4434406455056,9.779217551201736],[123.4388552177881,9.773811018790035],[123.4400886228198,9.757826862442657],[123.42332470623455,9.75521312800786],[123.42647731087196,9.766197037557008],[123.41703457245406,9.778553502508712],[123.41703196975554,9.778556907830936],[123.4211954452587,9.784414267184586],[123.42120214425852,9.784413103609587],[123.42215993554392,9.78576888499138],[123.4221925718936,9.785812468239566],[123.42840499319102,9.79410842499416],[123.4284067499052,9.794110770823288],[123.42889750178762,9.793624472106714],[123.4341712880367,9.788398403576114],[123.43421900653566,9.78835111554754],[123.43421884564536,9.788350749580793]]]}},{"type":"Feature","properties":{"OBJECTID":"8","BRGY":"CALIONGAN","Shape_Leng":"1.38481706991e+004","Shape_Area":"1.11741134005e+007","area_ha":"1.11741145899e+003"},"geometry":{"type":"Polygon","coordinates":[[[123.46157935090096,9.755759382940534],[123.4615762080367,9.755758483894516],[123.46017181445497,9.771046474478695],[123.45742642171176,9.775392140591784],[123.45742527750363,9.77539395123361],[123.47277814390539,9.795007076975086],[123.47277956201215,9.795008889595824],[123.48830752005593,9.789302367243163],[123.48831182556154,9.789300785311356],[123.50104213601266,9.784462330395769],[123.50103922224083,9.78445940619563],[123.50103699858201,9.784457180778984],[123.4767740468171,9.760106397284224],[123.47677045715652,9.760102793884586],[123.47676629301426,9.76010160435365],[123.46157935090096,9.755759382940534]]]}},{"type":"Feature","properties":{"OBJECTID":"9","BRGY":"CASAY","Shape_Leng":"7.50323052104e+003","Shape_Area":"3.48076250732e+006","area_ha":"3.48076251105e+002"},"geometry":{"type":"Polygon","coordinates":[[[123.55198277205965,9.834974436585219],[123.56100980869655,9.82976177329694],[123.56133949183265,9.829863649600274],[123.5613394692948,9.829863251833357],[123.56131844272987,9.829489573070223],[123.56149671738453,9.82931606239675],[123.56143631591937,9.829013364486503],[123.56127624501538,9.82890072876304],[123.56105385878656,9.828762163669724],[123.56098130699193,9.82854085257283],[123.56096943752758,9.828482262763716],[123.56096212634614,9.82812440320805],[123.56098925894473,9.828004241267314],[123.56105097877482,9.827417501356084],[123.56144637021141,9.825664009848767],[123.56148741421545,9.825289659331732],[123.56131470685419,9.824173873359706],[123.56140463904033,9.824026536695659],[123.5613844851787,9.823912917896921],[123.5612274048776,9.823676896448658],[123.56112598014651,9.822146576475632],[123.56095181128433,9.82199416576285],[123.56095130845138,9.820950022694975],[123.56081585785398,9.820561211723783],[123.56074234958375,9.82030202917992],[123.56079822287161,9.820050113010335],[123.56071579273384,9.819829818545179],[123.56044758308406,9.819081150149605],[123.56032543389418,9.818308454466697],[123.56034243279589,9.818097658521298],[123.56029943814394,9.817950183805905],[123.56020343482456,9.817821006516597],[123.56007775255722,9.81771166545379],[123.55977933800492,9.816950996393908],[123.55963514238532,9.816639017578156],[123.5595417744635,9.816417756789495],[123.55946041347073,9.816233291444531],[123.55925922945096,9.816009419048761],[123.55899035733606,9.815685466571091],[123.55857630780265,9.815423447571936],[123.5582207544563,9.815176618965499],[123.55809025048724,9.814676494654583],[123.55735674571356,9.813889768061042],[123.55676203778789,9.813564740622946],[123.55623394438733,9.813090255328616],[123.55573157926429,9.812877831961885],[123.55523284236912,9.812732025178775],[123.55471658153684,9.812540171015797],[123.55410796711949,9.812164336034261],[123.55374919775007,9.811802776132602],[123.55342140037915,9.811442449042813],[123.55305673789992,9.811291471123909],[123.55221727988096,9.81109658406464],[123.5507365779169,9.8110249896519],[123.55024055875579,9.811000861204887],[123.54994575737761,9.811062879708057],[123.54964705253518,9.811334278812476],[123.54906654668432,9.811491341412397],[123.54893073243316,9.811569400675976],[123.54839718425383,9.812298880252749],[123.5483395343419,9.81227112553101],[123.54755669229915,9.812356732286661],[123.54667455299264,9.812329363362782],[123.54639300454863,9.812292805292978],[123.5461239936998,9.812252254517835],[123.54609174107274,9.812251226062434],[123.54603014592327,9.812232421465545],[123.54577170663376,9.81225488317779],[123.54560426218961,9.812174866382334],[123.54541244993973,9.812094796699842],[123.54521200307781,9.812145009059487],[123.54313822607647,9.816401179994822],[123.5452198327267,9.82380250036283],[123.55099518660384,9.829826053752898],[123.5509966220856,9.829827551359545],[123.55198276470773,9.834974400432992],[123.55198277205965,9.834974436585219]]]}},{"type":"Feature","properties":{"OBJECTID":"10","BRGY":"CATOLOHAN","Shape_Leng":"1.34730597721e+004","Shape_Area":"8.61107562426e+006","area_ha":"8.61107559267e+002"},"geometry":{"type":"Polygon","coordinates":[[[123.47020401406779,9.745513551256154],[123.42216429911026,9.73859557699113],[123.41627174868303,9.750227931738564],[123.41627859919464,9.750232757912476],[123.42332388756614,9.75519595341619],[123.44008788202844,9.757813522199916],[123.44304815596438,9.759084892696583],[123.44917892600044,9.757865691368092],[123.46157647184157,9.7557472833501],[123.47019498687528,9.74552426003453],[123.47020401406779,9.745513551256154]]]}},{"type":"Feature","properties":{"OBJECTID":"11","BRGY":"CAWAYAN","Shape_Leng":"8.17970886599e+003","Shape_Area":"2.56404212843e+006","area_ha":"2.56404214985e+002"},"geometry":{"type":"Polygon","coordinates":[[[123.53690391501286,9.818222763487299],[123.54203668349943,9.81575922485906],[123.54203713332377,9.81575948815034],[123.54313497962227,9.816401531377581],[123.54313577554463,9.816399898219267],[123.54520875757966,9.812145360458405],[123.54540920444386,9.812095149004747],[123.54475210586764,9.811935366959565],[123.54393533759372,9.811468436761484],[123.5436172336509,9.811158476303596],[123.54354924946107,9.811049545867524],[123.5433752773007,9.810913556138395],[123.54331634132177,9.810891767820562],[123.54342873644059,9.8108600313585],[123.54374430117753,9.810727128511466],[123.54382291136524,9.81067670671155],[123.5436792764088,9.810340671844028],[123.54357242505652,9.810167670986871],[123.54353114469534,9.810129120855375],[123.54359532159243,9.809209408852583],[123.54315227275943,9.809044596626096],[123.54307051228564,9.808984862789739],[123.54240798503325,9.808394041430674],[123.54132320353638,9.807410693609473],[123.54130914221805,9.807332456471054],[123.5405519424328,9.807456882806619],[123.54053649377288,9.807377982378709],[123.54025126053615,9.807185290563263],[123.54011960654888,9.807259089632918],[123.53996046761621,9.807276162974276],[123.5398367632361,9.807297261067347],[123.53978584288687,9.80728494088835],[123.53959833247103,9.807410181961266],[123.53931186705152,9.807352840987255],[123.53898894984505,9.807217923995024],[123.53893897053685,9.806927110263715],[123.53900639388183,9.80660820813797],[123.53929762312508,9.806230766665506],[123.539257215145,9.80616807502359],[123.53917137141138,9.805934864412938],[123.53897697358303,9.805620924893555],[123.53875333498648,9.805612947017039],[123.53864457671129,9.80558111046956],[123.53866626814612,9.805963121055866],[123.53861375505191,9.80632939571359],[123.53867721318949,9.806350711341857],[123.53881467292551,9.80637355065161],[123.53893880488496,9.806465855811933],[123.53889638221564,9.806713924886415],[123.53878087158431,9.806680835003714],[123.53862841764028,9.806577455294372],[123.53809296939036,9.806848324989007],[123.53797504984965,9.806768213432248],[123.53783104468111,9.806760661528006],[123.53762622895192,9.806227469638264],[123.53746207835898,9.806233411030215],[123.53737866002264,9.806419445391027],[123.53726337521809,9.806666791389162],[123.53723459423733,9.806953966001268],[123.53712954558891,9.807085847393001],[123.53713968615901,9.80715363579795],[123.5368994938915,9.807416275379392],[123.53680028764337,9.80756582011636],[123.5364391614681,9.80774706101575],[123.53606398388519,9.807684276753752],[123.53524607847048,9.807887133461934],[123.53492888025319,9.806894733172323],[123.5351390641033,9.806855633261424],[123.53538789185272,9.806741825961122],[123.5356588242913,9.80675110239426],[123.53588878318426,9.806415621399054],[123.53597206266915,9.806216147165426],[123.53603121113474,9.806105317088115],[123.53611717470264,9.806009093676703],[123.53618104672483,9.805761946276167],[123.53619317632686,9.805652576054415],[123.53619863343047,9.805529918626405],[123.53620363084163,9.805288664243418],[123.53621301174951,9.805219490235467],[123.53613847796335,9.805137021437204],[123.5361218023349,9.805142291122753],[123.53594914463835,9.80508340170367],[123.53602387013633,9.805007170131782],[123.53548276488735,9.804391723052763],[123.53539225786687,9.803833743463981],[123.53558393908463,9.803679479211697],[123.53570924373403,9.80367668202302],[123.53599607020537,9.803507499655518],[123.5359110983622,9.803179009455526],[123.53592699684467,9.803089066198956],[123.53599539074638,9.803121148024376],[123.53607737663974,9.803013408007304],[123.53594725817462,9.802996966214058],[123.53610939891006,9.802851027303056],[123.53601978558635,9.802713842841593],[123.53577017907247,9.802705152769725],[123.5357703584719,9.802536175391069],[123.53595696616574,9.802481386579792],[123.53571785273827,9.802249593337873],[123.53527187428894,9.802268310519105],[123.53486415839724,9.802129509055845],[123.53483659384781,9.801998709717953],[123.534772540406,9.801695641812065],[123.53472564522929,9.801472791132504],[123.53468403686041,9.801275352064499],[123.53415048011625,9.801343671282599],[123.52873559871503,9.801950806348714],[123.52357664225869,9.814551682888332],[123.52357607284856,9.81455307336183],[123.53469349806454,9.816199948155582],[123.5346949669035,9.816201293898304],[123.53690157039448,9.818223889128635],[123.53690391501286,9.818222763487299]]]}},{"type":"Feature","properties":{"OBJECTID":"12","BRGY":"CONSOLACION","Shape_Leng":"4.68900734321e+003","Shape_Area":"1.06343943980e+006","area_ha":"1.06343942299e+002"},"geometry":{"type":"Polygon","coordinates":[[[123.51796363064045,9.74586538990856],[123.51747024030082,9.7454900808241],[123.51674858025552,9.744953591893664],[123.51620484098117,9.745667302822078],[123.51539438963854,9.744999086408361],[123.51480222509784,9.74413163065714],[123.51407939979381,9.744674560197705],[123.5031523410089,9.752892410212281],[123.50315268388607,9.752892539003986],[123.50908665766995,9.75511331589539],[123.5196941319369,9.749636231368514],[123.52041664662872,9.749479987033114],[123.52042758331211,9.74886900707916],[123.52035221377675,9.748798721452165],[123.52001920674168,9.748405073357024],[123.51954826755512,9.747707290653084],[123.51932725871102,9.747419001113697],[123.51902761690175,9.74702624593746],[123.5183155227916,9.746399127467543],[123.51796363064045,9.74586538990856]]]}},{"type":"Feature","properties":{"OBJECTID":"13","BRGY":"CORO","Shape_Leng":"8.31571913120e+003","Shape_Area":"2.74015933232e+006","area_ha":"2.74015933090e+002"},"geometry":{"type":"Polygon","coordinates":[[[123.51651405268602,9.793274304789316],[123.51636492100685,9.792156191526717],[123.53553233956217,9.792691287042322],[123.5359224803559,9.792704082475927],[123.53592316219886,9.792704104926122],[123.53644675000066,9.791988700549648],[123.53683063857376,9.791575487804863],[123.5371424029549,9.79067623598315],[123.53747520892496,9.789115657340208],[123.53731975067163,9.787535375231975],[123.53712903508185,9.787102511934476],[123.53685608889465,9.786670191958391],[123.536120505907,9.78540250840564],[123.53572527123421,9.785034013987023],[123.53524353344189,9.784657174124154],[123.53507858105073,9.784465191930948],[123.53488134484819,9.784073472121582],[123.53457027589761,9.783909453336987],[123.53439205214328,9.783738374285095],[123.53383385773185,9.782937941126846],[123.53368909581494,9.782610662870065],[123.53383912731182,9.782540880541275],[123.53350656000092,9.78225502217146],[123.53329212549015,9.782329046161765],[123.50556221853618,9.787415443009328],[123.50469944019746,9.788551963952099],[123.50469834397862,9.788553408507678],[123.51651431821952,9.793276294333577],[123.51651421311695,9.793275509725156],[123.51651405268602,9.793274304789316]]]}},{"type":"Feature","properties":{"OBJECTID":"14","BRGY":"DUGYAN","Shape_Leng":"7.30756169309e+003","Shape_Area":"3.10923465031e+006","area_ha":"3.10923467247e+002"},"geometry":{"type":"Polygon","coordinates":[[[123.41627376571485,9.750242300352534],[123.41627269389663,9.750241544880126],[123.41278130834077,9.758397129075355],[123.41272384694562,9.759684509260842],[123.41218609577629,9.771732116465753],[123.41703457245406,9.778553502508712],[123.41703591737348,9.778555395030107],[123.42648125829807,9.766195523749335],[123.42332470623455,9.75521312800786],[123.41627376571485,9.750242300352534]]]}},{"type":"Feature","properties":{"OBJECTID":"15","BRGY":"DUMALAN","Shape_Leng":"1.09562683432e+004","Shape_Area":"6.17382291883e+006","area_ha":"6.17382295141e+002"},"geometry":{"type":"Polygon","coordinates":[[[123.48946985859541,9.798655177206143],[123.48946952333586,9.798652767320808],[123.48946778482083,9.798655146685423],[123.48307108968224,9.80740883153826],[123.47368093960284,9.812300846989192],[123.47368077590696,9.81230112477566],[123.46998878829486,9.818578887077118],[123.46868732931411,9.83068039276807],[123.46868788276124,9.830680460729717],[123.47633691626274,9.83161696545352],[123.48621965890428,9.83539950243395],[123.48622707453042,9.83540234083242],[123.48720141964603,9.827719229729436],[123.48720200556137,9.827714607094931],[123.49186140234247,9.825849268499006],[123.49223925064247,9.818538483159346],[123.48946985859541,9.798655177206143]]]}},{"type":"Feature","properties":{"OBJECTID":"16","BRGY":"JOLOMAYNON","Shape_Leng":"1.24940478980e+004","Shape_Area":"8.17653355312e+006","area_ha":"8.17653347113e+002"},"geometry":{"type":"Polygon","coordinates":[[[123.50908611174187,9.755115768642739],[123.50315219773742,9.752892906776761],[123.47676629301426,9.76010160435365],[123.47677169987593,9.760107038806213],[123.50103483682626,9.784458003931746],[123.50103796602667,9.784461143902787],[123.50103922224083,9.78445940619563],[123.51859604654793,9.760177345476686],[123.5185962057128,9.760177125540485],[123.51859775008396,9.76017680408332],[123.51860505646285,9.760175283308397],[123.51860527969053,9.760175236865436],[123.52115040592338,9.759645353090239],[123.52114488229208,9.759643279219231],[123.50908611174187,9.755115768642739]]]}},{"type":"Feature","properties":{"OBJECTID":"17","BRGY":"LANAO","Shape_Leng":"1.33710431871e+004","Shape_Area":"1.07319892659e+007","area_ha":"1.07319892904e+003"},"geometry":{"type":"Polygon","coordinates":[[[123.4918632942846,9.825852667062092],[123.51646768358611,9.814046731699737],[123.52357664225869,9.814551682888332],[123.52357929612639,9.814551871438297],[123.52873559871503,9.801950806348714],[123.51651472761324,9.793274574110155],[123.51651405268602,9.793274304789316],[123.51651397698409,9.793274274162641],[123.50469944019746,9.788551963952099],[123.50469875343076,9.788551689199364],[123.48947141508623,9.798656165911337],[123.49224114163155,9.818541881724915],[123.4918632942846,9.825852667062092]]]}},{"type":"Feature","properties":{"OBJECTID":"18","BRGY":"LANGKAS","Shape_Leng":"8.22538619939e+003","Shape_Area":"3.68362542284e+006","area_ha":"3.68362546434e+002"},"geometry":{"type":"Polygon","coordinates":[[[123.45742642171176,9.775392140591784],[123.45742476182177,9.77539001991209],[123.44674466826582,9.78026080298562],[123.4604868930576,9.798789746613329],[123.47105863539008,9.799039170327278],[123.47106192248697,9.799039248133218],[123.47277814390539,9.795007076975086],[123.472779046111,9.79500495921597],[123.45742642171176,9.775392140591784]]]}},{"type":"Feature","properties":{"OBJECTID":"19","BRGY":"LUMBANG","Shape_Leng":"4.69589749222e+003","Shape_Area":"1.39447075175e+006","area_ha":"1.39447075919e+002"},"geometry":{"type":"Polygon","coordinates":[[[123.54313577554463,9.816399898219267],[123.54203910353773,9.815758542075665],[123.54203713332377,9.81575948815034],[123.53690425735122,9.81822307758247],[123.53690399046148,9.818223205476421],[123.53209631043347,9.825258645427288],[123.53209699851132,9.825263180253474],[123.53283854466815,9.83015152584587],[123.53283956622543,9.830158257123621],[123.53619786759252,9.83029942752587],[123.53621450376232,9.830300126727584],[123.5452198327267,9.82380250036283],[123.54313739966251,9.816400848586246],[123.54313577554463,9.816399898219267]]]}},{"type":"Feature","properties":{"OBJECTID":"20","BRGY":"MALONES","Shape_Leng":"1.14759358319e+004","Shape_Area":"7.02178078695e+006","area_ha":"7.02178074964e+002"},"geometry":{"type":"Polygon","coordinates":[[[123.52358180328605,9.814555051895466],[123.5164701915868,9.814049911307867],[123.49186580124402,9.825855847762941],[123.51450239169634,9.837814916465268],[123.51451843838085,9.837823392904014],[123.53208816410081,9.825269492777304],[123.53209699851132,9.825263180253474],[123.53209962188112,9.825261305614477],[123.5369073009619,9.818225866524873],[123.53690425735122,9.81822307758247],[123.53690391501286,9.818222763487299],[123.5346992285854,9.816201925591951],[123.5346949669035,9.816201293898304],[123.52358180328605,9.814555051895466]]]}},{"type":"Feature","properties":{"OBJECTID":"21","BRGY":"MALORAY","Shape_Leng":"6.96695955579e+003","Shape_Area":"2.67154675749e+006","area_ha":"2.67154675006e+002"},"geometry":{"type":"Polygon","coordinates":[[[123.47156769454077,9.86193975186846],[123.47074884512921,9.847505671561239],[123.46532689863506,9.851491513918512],[123.45955111628248,9.85193625685164],[123.45336133911088,9.852412767121034],[123.45335267811426,9.852413433984584],[123.46024428964108,9.868049971727151],[123.46781411435389,9.864747634954576],[123.47156769454077,9.86193975186846]]]}},{"type":"Feature","properties":{"OBJECTID":"22","BRGY":"MANANGAL","Shape_Leng":"7.11736167823e+003","Shape_Area":"1.55717040970e+006","area_ha":"1.55717040534e+002"},"geometry":{"type":"Polygon","coordinates":[[[123.53074839664664,9.775035584370626],[123.5305387729266,9.774985363092858],[123.52462743358711,9.77633240157708],[123.52462484714012,9.77633377431074],[123.5246246595319,9.776333874046536],[123.51832288472424,9.779679048061329],[123.51488432048964,9.782368143304355],[123.50556221853618,9.787415443009328],[123.53329161402291,9.782323724478989],[123.53350604853043,9.78224970048916],[123.53350195465087,9.782075979265597],[123.53325140645316,9.781665442801863],[123.5329732750886,9.78132904727217],[123.53298944186025,9.781234012619267],[123.53253001823552,9.780820398409848],[123.5322706646559,9.779550890735731],[123.53224782888691,9.7793934802813],[123.53219330402614,9.779305530351827],[123.53215947935504,9.77923609092066],[123.53198571736995,9.77856748477076],[123.53125984159682,9.77718171241295],[123.53129506182378,9.776846204227287],[123.53121207367468,9.776109058974376],[123.53108356546969,9.775766089729185],[123.53076019167611,9.775218743701675],[123.53074876559911,9.775041318552958],[123.53074839664664,9.775035584370626]]]}},{"type":"Feature","properties":{"OBJECTID":"23","BRGY":"MANLAPAY","Shape_Leng":"9.16417000231e+003","Shape_Area":"4.75365571084e+006","area_ha":"4.75365571634e+002"},"geometry":{"type":"Polygon","coordinates":[[[123.4701874451442,9.883329296807368],[123.47596701530995,9.880571588779906],[123.4795188246367,9.881773071179161],[123.48035580305175,9.874639143964442],[123.48992429193586,9.870686591822311],[123.48991739969584,9.870677443945478],[123.48147342981699,9.859469156318792],[123.47158034528091,9.861950818928502],[123.46782676508688,9.864758702154441],[123.4602535305646,9.86805511009382],[123.46746622171217,9.880865033523094],[123.47017750258755,9.883320293734831],[123.4701874451442,9.883329296807368]]]}},{"type":"Feature","properties":{"OBJECTID":"24","BRGY":"MANTALONGON","Shape_Leng":"1.28186399821e+004","Shape_Area":"1.03077573644e+007","area_ha":"1.03077573607e+003"},"geometry":{"type":"Polygon","coordinates":[[[123.4710585135763,9.799038090981908],[123.4604868930576,9.798789746613329],[123.44037973714576,9.81009874206552],[123.44038607891494,9.81010720919354],[123.4427400594406,9.813250127451008],[123.44933435131533,9.837559928928579],[123.44933794794868,9.837573187598549],[123.46346128200301,9.83254394731526],[123.46868764333594,9.830682683361003],[123.46868788276124,9.830680460729717],[123.46998910231027,9.818581177670598],[123.47368125363677,9.812303138483264],[123.47368077590696,9.81230112477566],[123.47152877668847,9.80322153386671],[123.47105863539008,9.799039170327278],[123.4710585135763,9.799038090981908]]]}},{"type":"Feature","properties":{"OBJECTID":"25","BRGY":"NALHUB","Shape_Leng":"8.91002513357e+003","Shape_Area":"5.07904960161e+006","area_ha":"5.07904960161e+002"},"geometry":{"type":"Polygon","coordinates":[[[123.44917892600044,9.757865691368092],[123.44304954389811,9.759091107650185],[123.44008926990033,9.75781973626457],[123.4388558649107,9.773803892618417],[123.44344129253544,9.779210425027452],[123.44674405063192,9.780255491188324],[123.45742414403175,9.775384708139923],[123.46017068092917,9.77103723229873],[123.46157512363963,9.755749152137827],[123.44917892600044,9.757865691368092]]]}},{"type":"Feature","properties":{"OBJECTID":"26","BRGY":"OBO","Shape_Leng":"7.19983913388e+003","Shape_Area":"3.19276170172e+006","area_ha":"3.19276175080e+002"},"geometry":{"type":"Polygon","coordinates":[[[123.48946778482083,9.798655146685423],[123.48830752005593,9.789302367243163],[123.472779046111,9.79500495921597],[123.47277814390539,9.795007076975086],[123.4710585135763,9.799038090981908],[123.47105863539008,9.799039170327278],[123.47152877668847,9.80322153386671],[123.47368093960284,9.812300846989192],[123.48307108968224,9.80740883153826],[123.4894679462063,9.798656446568549],[123.48946778482083,9.798655146685423]]]}},{"type":"Feature","properties":{"OBJECTID":"27","BRGY":"OBONG","Shape_Leng":"1.35297680287e+004","Shape_Area":"8.13090692097e+006","area_ha":"8.13090683421e+002"},"geometry":{"type":"Polygon","coordinates":[[[123.5137502855749,9.741595874981183],[123.51322910569667,9.741067324468451],[123.51283696296827,9.741189498318906],[123.51272129540493,9.741241191337773],[123.51259443029662,9.741307224641506],[123.5124282706155,9.741057886000167],[123.51239820971712,9.740895695730046],[123.51256714653334,9.740694058057203],[123.51290535224543,9.74070762043205],[123.51290574609955,9.740662688261713],[123.5127228518932,9.740314670837538],[123.51273230551023,9.740113182155302],[123.51220147214354,9.739529385704758],[123.5119789464488,9.738938477952246],[123.51186291347287,9.738922098871782],[123.51155863684397,9.738677819667556],[123.51145780574187,9.738435751991387],[123.51133062604639,9.738228255504369],[123.51119331392472,9.738004226799506],[123.51099847355373,9.737686338106135],[123.51092446683671,9.737565594204305],[123.51068109231082,9.73721822655709],[123.51065538295855,9.737077672268786],[123.5106388259524,9.7369178542158],[123.51046510094028,9.736700161228761],[123.51046470649743,9.736699667258273],[123.50276129294565,9.738389322993916],[123.47020480600222,9.745528127248734],[123.46157935090096,9.755759382940534],[123.4615772625359,9.755761859371605],[123.47676791251868,9.760108074688382],[123.47677169987593,9.760107038806213],[123.4767740468171,9.760106397284224],[123.50315219773742,9.752892906776761],[123.50315268388607,9.752892539003986],[123.51407939979381,9.744674560197705],[123.51480152211813,9.744131426464575],[123.51537327037664,9.743704501538707],[123.51510277478475,9.743386052371125],[123.51498390438812,9.743349966325479],[123.5148041744942,9.74302745503963],[123.51372390296531,9.741644317303948],[123.5137502855749,9.741595874981183]]]}},{"type":"Feature","properties":{"OBJECTID":"28","BRGY":"PAÑAS","Shape_Leng":"9.65087525483e+003","Shape_Area":"3.56777891995e+006","area_ha":"3.56777894334e+002"},"geometry":{"type":"Polygon","coordinates":[[[123.53208816410081,9.825269492777304],[123.53208543480969,9.825251499901693],[123.51450425123356,9.837813586461994],[123.51450239169634,9.837814916465268],[123.51450045475417,9.83781630173454],[123.50217988764909,9.846627062249606],[123.50218265239299,9.846627461450243],[123.51938958979878,9.849111081959833],[123.53619786759252,9.83029942752587],[123.53620362697508,9.830292981351267],[123.53283854466815,9.83015152584587],[123.53282868950961,9.830151111634663],[123.53208816410081,9.825269492777304]]]}},{"type":"Feature","properties":{"OBJECTID":"29","BRGY":"POBLACION","Shape_Leng":"6.28296408459e+003","Shape_Area":"1.20125266631e+006","area_ha":"1.20125265578e+002"},"geometry":{"type":"Polygon","coordinates":[[[123.53642411174951,9.763051423247509],[123.53659721999175,9.762445015518937],[123.53676545224536,9.761938751362386],[123.53661441886258,9.761831183891328],[123.53655927832777,9.761558420724421],[123.53646925907358,9.761403061770846],[123.5364744048728,9.761312523832393],[123.53648878269466,9.761234894915043],[123.53650478536461,9.761158871889814],[123.53655769532124,9.760917695631505],[123.53662775681889,9.760741206063345],[123.53668164630973,9.7605782407103],[123.53690199912208,9.759955012088493],[123.53702111314954,9.759584637777602],[123.53713350222245,9.75926043570562],[123.53716540748586,9.759072862894826],[123.5372583975628,9.758965216165194],[123.53729161921062,9.75882770800737],[123.53736451590883,9.758591339472355],[123.53744762664378,9.758514173669505],[123.53744757494445,9.758513754244202],[123.53742843306904,9.758357742354441],[123.53747001948751,9.75812522134103],[123.53740126752174,9.757889798137649],[123.53737934973437,9.75781035569414],[123.53732898899227,9.757663378943734],[123.53723713481689,9.757411752799724],[123.53715481016256,9.757322754305378],[123.53659973049358,9.756872966414027],[123.53639065445189,9.756758345069636],[123.53626072252118,9.756621038440192],[123.53608048094348,9.756498257984294],[123.53583447511993,9.756343024775825],[123.5354986689873,9.756179394243567],[123.53528240827673,9.75608285725534],[123.53502048044851,9.755999547070596],[123.53480461241449,9.755919650151636],[123.53427229708059,9.755739257815916],[123.53414681369996,9.755685663770793],[123.53397461044047,9.755645876732576],[123.53372713746434,9.755547548668536],[123.53358547508859,9.755478873458136],[123.53325145128977,9.755432927299248],[123.53304892438207,9.75529236664834],[123.53279789638829,9.75526409175775],[123.53263279564166,9.755222868248815],[123.53203915412507,9.754986397797653],[123.53130206165463,9.754699922618245],[123.53075048582178,9.754506216645566],[123.53047037239646,9.754373708298973],[123.52962763206044,9.754077472652874],[123.52913515984467,9.753889663530554],[123.5288032461419,9.753805459588731],[123.5289145964379,9.75390772906262],[123.52862358524408,9.75666419288753],[123.52115183512676,9.75964183215427],[123.52114488229208,9.759643279219231],[123.51859744692972,9.760173431305736],[123.51859719636768,9.76017348321418],[123.51860505646285,9.760175283308397],[123.51866781504863,9.760189652594079],[123.52251860697042,9.761071314113883],[123.52251928257132,9.761071468603566],[123.52285982849212,9.76080528269196],[123.52329070407825,9.760342844758167],[123.52346027943513,9.759970514188797],[123.52404342692816,9.759467886877596],[123.52404933695402,9.759462792347641],[123.52431279401797,9.759709612084153],[123.52452025297158,9.761217699986686],[123.52495411799858,9.761525589003979],[123.52498268796884,9.761789153840857],[123.52468270625256,9.762052616097666],[123.52506340552334,9.762387855878293],[123.52506563150646,9.762389816232925],[123.52569647242886,9.761460171571523],[123.5259851711371,9.761224481690741],[123.52599126909355,9.76121950347266],[123.52611621752193,9.7613517812606],[123.52607924186515,9.761636299468407],[123.52617882256475,9.761839994079459],[123.52617934189101,9.76184105652286],[123.52662233261216,9.761437386710943],[123.52662784353852,9.76143236507126],[123.52699419639482,9.761622990687233],[123.52758247523681,9.761726366711521],[123.52773944284424,9.761833897672723],[123.52755182868829,9.762009611447137],[123.5274328802987,9.76234351554685],[123.52765051711748,9.76258720965452],[123.52815752110034,9.762686903673654],[123.5284223870965,9.763056095026705],[123.52909531562612,9.76348868485526],[123.52909638306019,9.763489370349026],[123.52927355274761,9.763324017370088],[123.52936224092379,9.762841283156796],[123.5293632495667,9.762835794590725],[123.52990445068325,9.7629352484457],[123.53027424949799,9.763476272597812],[123.53027451076,9.763476654635824],[123.5309774052078,9.762937985788923],[123.53098321683184,9.76293353230445],[123.5312909785213,9.762929508929753],[123.53139419519864,9.76336359255127],[123.53157116147216,9.763695300487573],[123.53199224524656,9.76384262658275],[123.5323643775076,9.76409580685726],[123.5324429070263,9.764283822824337],[123.53270535846012,9.765080087110773],[123.53312335135476,9.765581790070371],[123.53342969003798,9.765682255329953],[123.53360813286153,9.765676108664273],[123.53452409092368,9.765631051558135],[123.53530211394073,9.765242514326554],[123.53578123191474,9.765142453902317],[123.53585437010366,9.765088659597437],[123.53585451758501,9.765088550876817],[123.53596981147213,9.764847990754731],[123.53596992321164,9.764847757322634],[123.53605996670656,9.764816701344696],[123.5360602299676,9.764816610527168],[123.53608936350524,9.764454310905766],[123.53613786379282,9.764239853351961],[123.53617693119635,9.764157969534297],[123.53642411174951,9.763051423247509]]]}},{"type":"Feature","properties":{"OBJECTID":"30","BRGY":"SACSAC","Shape_Leng":"1.24263698652e+004","Shape_Area":"4.44550687447e+006","area_ha":"4.44550702770e+002"},"geometry":{"type":"Polygon","coordinates":[[[123.51859604654793,9.760177345476686],[123.51859523541916,9.76017316608853],[123.50103699858201,9.784457180778984],[123.50103483682626,9.784458003931746],[123.48830668550995,9.789295639117855],[123.48830752005593,9.789302367243163],[123.48946778482083,9.798655146685423],[123.4894679462063,9.798656446568549],[123.48946985859541,9.798655177206143],[123.50469528558745,9.788551970005162],[123.50556221853618,9.787415443009328],[123.51488500971548,9.782372463917655],[123.51832357489825,9.779683368664973],[123.52462793622587,9.776336822804788],[123.52462812383412,9.776336723068994],[123.52462484714012,9.77633377431074],[123.52112302743164,9.773182711036528],[123.52112124034322,9.773181102602232],[123.51859604654793,9.760177345476686]]]}},{"type":"Feature","properties":{"OBJECTID":"31","BRGY":"SALUG","Shape_Leng":"8.71665172780e+003","Shape_Area":"4.68239089443e+006","area_ha":"4.68239092857e+002"},"geometry":{"type":"Polygon","coordinates":[[[123.48621863125554,9.835407606508953],[123.47635217686482,9.831631303488495],[123.47075863988249,9.847512761787339],[123.47156913010909,9.861944725218033],[123.48147342981699,9.859469156318792],[123.4887112309448,9.85105519303843],[123.48871019401564,9.851048626164271],[123.48624233571874,9.835416678389363],[123.48621863125554,9.835407606508953]]]}},{"type":"Feature","properties":{"OBJECTID":"32","BRGY":"TABON","Shape_Leng":"9.99564530531e+003","Shape_Area":"6.38349904361e+006","area_ha":"6.38349909344e+002"},"geometry":{"type":"Polygon","coordinates":[[[123.44038607891494,9.81010720919354],[123.44309128306207,9.808583598586104],[123.44309177951176,9.808584730808752],[123.4604868930576,9.798789746613329],[123.44674508950766,9.780262302374208],[123.443442331339,9.779217235322834],[123.4341712880367,9.788398403576114],[123.42889576735772,9.793622451735184],[123.42840499319102,9.79410842499416],[123.4284067499052,9.794110770823288],[123.44035910653479,9.810071195444088],[123.44037973714576,9.81009874206552],[123.44038607891494,9.81010720919354]]]}},{"type":"Feature","properties":{"OBJECTID":"33","BRGY":"TAPON","Shape_Leng":"6.78857412363e+003","Shape_Area":"2.07136898471e+006","area_ha":"2.07136900090e+002"},"geometry":{"type":"Polygon","coordinates":[[[123.52462997434769,9.776338656865475],[123.53054131287229,9.774991618333704],[123.53074876559911,9.775041318552958],[123.53075093659515,9.77504183870557],[123.53083590338828,9.77474942088361],[123.53089491138985,9.774552806673864],[123.53092280984067,9.774396843538197],[123.53098266683094,9.774266123815904],[123.53107943484474,9.774069711201477],[123.53123053514645,9.773517856233422],[123.53133571504247,9.773178962466165],[123.53138462295044,9.77307669180911],[123.53142469441362,9.77298503534309],[123.53146273019274,9.772896055437299],[123.53151014762754,9.772785488256536],[123.53160634656345,9.772546040917062],[123.53168957060956,9.772306443484776],[123.53173416549531,9.77219026610535],[123.53176711338931,9.772107133599006],[123.53182716641608,9.77201841100268],[123.53189148508768,9.7719227283686],[123.53196501570474,9.771798959984626],[123.53199297083943,9.771726512619002],[123.53203515758003,9.771654210668308],[123.53207057407477,9.771584846601648],[123.53210017818682,9.771519540042659],[123.53213495991933,9.77144935691998],[123.53217019994904,9.771325918506959],[123.53222262240863,9.771228643867108],[123.53235999513477,9.771143367360379],[123.53238903657616,9.771062740655537],[123.53242049302756,9.771006436127823],[123.53244219251614,9.770950783074577],[123.53242934246211,9.77073444380508],[123.53363545035975,9.7687701577147],[123.53379666792532,9.768821279968684],[123.53384372931521,9.768712331404766],[123.53389060168654,9.76861540864521],[123.53388974088882,9.76841072118956],[123.53388707095853,9.768332470371968],[123.53393780794103,9.768189641079184],[123.53403315091604,9.768016616449971],[123.53404583429545,9.76791049460597],[123.53408636704975,9.767788283786706],[123.53413212401988,9.767725377007682],[123.53413299952346,9.767725127933916],[123.5341618502044,9.767641274637338],[123.53426932060133,9.767442686647009],[123.53439986679435,9.767326813210028],[123.53458634862262,9.767090424723667],[123.53477465573893,9.766809217683154],[123.53506347705314,9.766470723190965],[123.53530096657516,9.766168770323176],[123.53577464744214,9.765146916797669],[123.53529553037077,9.765246977211673],[123.53451750733662,9.76563551533315],[123.53360154926044,9.765680572422259],[123.53342310643421,9.765686719084645],[123.53311676774848,9.765586253819256],[123.53269877485732,9.765084550851473],[123.53243632343342,9.764288285655425],[123.53235779391856,9.764100270590864],[123.53198566165693,9.763847090309199],[123.53156457696643,9.763699763303375],[123.53138761069812,9.763368056267597],[123.53128439493888,9.76293397264244],[123.5309774052078,9.762937985788923],[123.53097663233352,9.762937996012788],[123.53027424949799,9.763476272597812],[123.53026792715265,9.763481118329993],[123.52989786707946,9.762939711228467],[123.52936224092379,9.762841283156796],[123.52935666504699,9.762840258268811],[123.52926696821595,9.763328480142771],[123.52909531562612,9.76348868485526],[123.52908979852427,9.763493834022643],[123.52841580347052,9.763060558686034],[123.52815093747756,9.76269136732777],[123.52764393348788,9.762591672395008],[123.52742629575923,9.762347978284474],[123.52754524506962,9.762014075089438],[123.52773285923162,9.76183836131839],[123.52757589162253,9.761730829450073],[123.52698761277549,9.761627454318852],[123.52662233261216,9.761437386710943],[123.52662125991752,9.761436828695905],[123.52617882256475,9.761839994079459],[123.52617275825581,9.761845520139488],[123.52607265823242,9.761640763082992],[123.52610963389374,9.761356243971543],[123.5259851711371,9.761224481690741],[123.52598468455464,9.761223966182556],[123.525689888794,9.761464635178834],[123.52506340552334,9.762387855878293],[123.52505904693209,9.762394278926477],[123.52467612168049,9.762057079687946],[123.5249761043161,9.761793616531016],[123.5249475343504,9.761530051693406],[123.52451366932304,9.761222162667785],[123.52430621039639,9.759714075664355],[123.52404342692816,9.759467886877596],[123.52404275333333,9.759467255922724],[123.52345369579638,9.759974977753307],[123.52328412043,9.7603473083198],[123.52285324482895,9.760809746245917],[123.52251860697042,9.761071314113883],[123.52251269889823,9.76107593215138],[123.51866781504863,9.760189652594079],[123.51860527969053,9.760175236865436],[123.51859744692972,9.760173431305736],[123.51859707858598,9.760173345965564],[123.51859775008396,9.76017680408332],[123.52112302743164,9.773182711036528],[123.52112309081915,9.773183036420106],[123.5246246595319,9.776333874046536],[123.52462793622587,9.776336822804788],[123.52462997434769,9.776338656865475]]]}},{"type":"Feature","properties":{"OBJECTID":"34","BRGY":"TUBA","Shape_Leng":"1.26252592828e+004","Shape_Area":"4.69403006175e+006","area_ha":"4.69402998472e+002"},"geometry":{"type":"Polygon","coordinates":[[[123.55099497973856,9.829824975491658],[123.5452198327267,9.82380250036283],[123.53621518462295,9.830300631965606],[123.51940114776602,9.849118732222653],[123.5193971341823,9.849122011137439],[123.50797689434502,9.858453370419726],[123.50802519719724,9.858430657573644],[123.53986177919995,9.843458338408572],[123.55181567071884,9.83499436596998],[123.5519811305892,9.834971860723229],[123.55099518660384,9.829826053752898],[123.55099497973856,9.829824975491658]]]}}]}